{
  "type": "FeatureCollection",
  "features": [
    {
      "type": "Feature",
      "properties": {
        "norad_id": 45344,
        "name": "BEIDOU-3 G2 (C60)",
        "group": "gnss",
        "lat": -1.8177875972439697,
        "lon": -90.169286995548,
        "alt_km": 35772.51437900587,
        "timestamp": "2025-12-15T07:02:37.862166+00:00",
        "meta_object_name": "BEIDOU-3 G2 (C60)",
        "meta_object_id": "2020-017A",
        "meta_epoch": "2025-12-14T22:21:32.324832",
        "meta_mean_motion": 1.00273108,
        "meta_eccentricity": 0.00044173,
        "meta_inclination": 2.5013,
        "meta_ra_of_asc_node": 43.9082,
        "meta_arg_of_pericenter": 269.8635,
        "meta_mean_anomaly": 185.4973,
        "meta_ephemeris_type": 0,
        "meta_classification_type": "U",
        "meta_norad_cat_id": 45344,
        "meta_element_set_no": 999,
        "meta_rev_at_epoch": 2141,
        "meta_bstar": 0,
        "meta_mean_motion_dot": -1.22e-06,
        "meta_mean_motion_ddot": 0,
        "tle_line1": "1 45344U 20017A   25348.93162413 -.00000122  00000+0  00000+0 0  9995",
        "tle_line2": "2 45344   2.5013  43.9082 0004417 269.8635 185.4973  1.00273108 21411"
      },
      "geometry": {
        "type": "Point",
        "coordinates": [
          -90.169286995548,
          -1.8177875972439697
        ]
      }
    },
    {
      "type": "Feature",
      "properties": {
        "norad_id": 45358,
        "name": "COSMOS 2545 (760)",
        "group": "gnss",
        "lat": 13.038922713774728,
        "lon": -34.778381594760376,
        "alt_km": 19146.2589064557,
        "timestamp": "2025-12-15T07:02:37.862208+00:00",
        "meta_object_name": "COSMOS 2545 (760)",
        "meta_object_id": "2020-018A",
        "meta_epoch": "2025-12-10T13:58:04.872576",
        "meta_mean_motion": 2.13102273,
        "meta_eccentricity": 0.00118432,
        "meta_inclination": 64.471,
        "meta_ra_of_asc_node": 319.0455,
        "meta_arg_of_pericenter": 248.8319,
        "meta_mean_anomaly": 111.0396,
        "meta_ephemeris_type": 0,
        "meta_classification_type": "U",
        "meta_norad_cat_id": 45358,
        "meta_element_set_no": 999,
        "meta_rev_at_epoch": 4464,
        "meta_bstar": 0,
        "meta_mean_motion_dot": -5.2e-07,
        "meta_mean_motion_ddot": 0,
        "tle_line1": "1 45358U 20018A   25344.58200084 -.00000052  00000+0  00000+0 0  9997",
        "tle_line2": "2 45358  64.4710 319.0455 0011843 248.8319 111.0396  2.13102273 44648"
      },
      "geometry": {
        "type": "Point",
        "coordinates": [
          -34.778381594760376,
          13.038922713774728
        ]
      }
    },
    {
      "type": "Feature",
      "properties": {
        "norad_id": 45807,
        "name": "BEIDOU-3 G3 (C61)",
        "group": "gnss",
        "lat": -1.6260980057598349,
        "lon": -59.665053651837404,
        "alt_km": 35778.64072664717,
        "timestamp": "2025-12-15T07:02:37.862224+00:00",
        "meta_object_name": "BEIDOU-3 G3 (C61)",
        "meta_object_id": "2020-040A",
        "meta_epoch": "2025-12-08T17:33:17.532288",
        "meta_mean_motion": 1.00275813,
        "meta_eccentricity": 0.00060306,
        "meta_inclination": 1.9816,
        "meta_ra_of_asc_node": 66.5886,
        "meta_arg_of_pericenter": 306.262,
        "meta_mean_anomaly": 78.7159,
        "meta_ephemeris_type": 0,
        "meta_classification_type": "U",
        "meta_norad_cat_id": 45807,
        "meta_element_set_no": 999,
        "meta_rev_at_epoch": 2016,
        "meta_bstar": 0,
        "meta_mean_motion_dot": -3.52e-06,
        "meta_mean_motion_ddot": 0,
        "tle_line1": "1 45807U 20040A   25342.73145292 -.00000352  00000+0  00000+0 0  9998",
        "tle_line2": "2 45807   1.9816  66.5886 0006030 306.2620  78.7159  1.00275813 20161"
      },
      "geometry": {
        "type": "Point",
        "coordinates": [
          -59.665053651837404,
          -1.6260980057598349
        ]
      }
    },
    {
      "type": "Feature",
      "properties": {
        "norad_id": 45854,
        "name": "GPS BIII-3  (PRN 23)",
        "group": "gnss",
        "lat": 23.273429868808,
        "lon": 52.6086320090925,
        "alt_km": 20340.053599565694,
        "timestamp": "2025-12-15T07:02:37.862237+00:00",
        "meta_object_name": "GPS BIII-3  (PRN 23)",
        "meta_object_id": "2020-041A",
        "meta_epoch": "2025-12-14T06:05:38.632704",
        "meta_mean_motion": 2.00561996,
        "meta_eccentricity": 0.00605369,
        "meta_inclination": 56.5481,
        "meta_ra_of_asc_node": 36.1263,
        "meta_arg_of_pericenter": 203.4842,
        "meta_mean_anomaly": 154.2741,
        "meta_ephemeris_type": 0,
        "meta_classification_type": "U",
        "meta_norad_cat_id": 45854,
        "meta_element_set_no": 999,
        "meta_rev_at_epoch": 4032,
        "meta_bstar": 0,
        "meta_mean_motion_dot": -9.4e-07,
        "meta_mean_motion_ddot": 0,
        "tle_line1": "1 45854U 20041A   25348.25391936 -.00000094  00000+0  00000+0 0  9995",
        "tle_line2": "2 45854  56.5481  36.1263 0060536 203.4842 154.2741  2.00561996 40322"
      },
      "geometry": {
        "type": "Point",
        "coordinates": [
          52.6086320090925,
          23.273429868808
        ]
      }
    },
    {
      "type": "Feature",
      "properties": {
        "norad_id": 46114,
        "name": "GALAXY 30 (WAAS/PRN 135)",
        "group": "gnss",
        "lat": 0.0382005030392173,
        "lon": 64.85948820687597,
        "alt_km": 35794.66089910625,
        "timestamp": "2025-12-15T07:02:37.862251+00:00",
        "meta_object_name": "GALAXY 30 (WAAS/PRN 135)",
        "meta_object_id": "2020-056C",
        "meta_epoch": "2025-12-14T16:14:52.443168",
        "meta_mean_motion": 1.00271715,
        "meta_eccentricity": 0.00021307,
        "meta_inclination": 0.0181,
        "meta_ra_of_asc_node": 355.3137,
        "meta_arg_of_pericenter": 267.0636,
        "meta_mean_anomaly": 299.9386,
        "meta_ephemeris_type": 0,
        "meta_classification_type": "U",
        "meta_norad_cat_id": 46114,
        "meta_element_set_no": 999,
        "meta_rev_at_epoch": 1944,
        "meta_bstar": 0,
        "meta_mean_motion_dot": 5.6e-07,
        "meta_mean_motion_ddot": 0,
        "tle_line1": "1 46114U 20056C   25348.67699587  .00000056  00000+0  00000+0 0  9997",
        "tle_line2": "2 46114   0.0181 355.3137 0002130 267.0636 299.9386  1.00271715 19449"
      },
      "geometry": {
        "type": "Point",
        "coordinates": [
          64.85948820687597,
          0.0382005030392173
        ]
      }
    },
    {
      "type": "Feature",
      "properties": {
        "norad_id": 46805,
        "name": "COSMOS 2547 (705K)",
        "group": "gnss",
        "lat": -43.92360058747103,
        "lon": 45.85294983132708,
        "alt_km": 19119.33853552668,
        "timestamp": "2025-12-15T07:02:37.862263+00:00",
        "meta_object_name": "COSMOS 2547 (705K)",
        "meta_object_id": "2020-075A",
        "meta_epoch": "2025-12-13T02:47:35.788416",
        "meta_mean_motion": 2.13100044,
        "meta_eccentricity": 0.00062786,
        "meta_inclination": 64.5959,
        "meta_ra_of_asc_node": 198.6839,
        "meta_arg_of_pericenter": 228.7725,
        "meta_mean_anomaly": 131.2461,
        "meta_ephemeris_type": 0,
        "meta_classification_type": "U",
        "meta_norad_cat_id": 46805,
        "meta_element_set_no": 999,
        "meta_rev_at_epoch": 3994,
        "meta_bstar": 0,
        "meta_mean_motion_dot": 7.7e-07,
        "meta_mean_motion_ddot": 0,
        "tle_line1": "1 46805U 20075A   25347.11638644  .00000077  00000+0  00000+0 0  9993",
        "tle_line2": "2 46805  64.5959 198.6839 0006278 228.7725 131.2461  2.13100044 39941"
      },
      "geometry": {
        "type": "Point",
        "coordinates": [
          45.85294983132708,
          -43.92360058747103
        ]
      }
    },
    {
      "type": "Feature",
      "properties": {
        "norad_id": 46826,
        "name": "GPS BIII-4  (PRN 14)",
        "group": "gnss",
        "lat": -0.2947979747644756,
        "lon": -141.96765218019306,
        "alt_km": 20339.51986945569,
        "timestamp": "2025-12-15T07:02:37.862274+00:00",
        "meta_object_name": "GPS BIII-4  (PRN 14)",
        "meta_object_id": "2020-078A",
        "meta_epoch": "2025-12-14T12:30:57.028896",
        "meta_mean_motion": 2.00566857,
        "meta_eccentricity": 0.00647079,
        "meta_inclination": 54.0147,
        "meta_ra_of_asc_node": 218.2686,
        "meta_arg_of_pericenter": 203.3807,
        "meta_mean_anomaly": 318.6031,
        "meta_ephemeris_type": 0,
        "meta_classification_type": "U",
        "meta_norad_cat_id": 46826,
        "meta_element_set_no": 999,
        "meta_rev_at_epoch": 3780,
        "meta_bstar": 0,
        "meta_mean_motion_dot": 4.8e-07,
        "meta_mean_motion_ddot": 0,
        "tle_line1": "1 46826U 20078A   25348.52149339  .00000048  00000+0  00000+0 0  9991",
        "tle_line2": "2 46826  54.0147 218.2686 0064707 203.3807 318.6031  2.00566857 37808"
      },
      "geometry": {
        "type": "Point",
        "coordinates": [
          -141.96765218019306,
          -0.2947979747644756
        ]
      }
    }
  ]
}